EUTELSAT 21B            
1 38992U 12062B   25290.93100280  .00000122  00000+0  00000+0 0  9996
2 38992   0.0855  34.0621 0002837 183.6380 165.7476  1.00274341 47397
EUTELSAT 70B            
1 39020U 12069A   25290.92551062 -.00000052  00000+0  00000+0 0  9996
2 39020   0.0676 349.7306 0004253 216.8923 223.7550  1.00271085 47078
EUTELSAT 117 WEST A     
1 39122U 13012A   25290.95974412 -.00000021  00000+0  00000+0 0  9995
2 39122   0.0155  34.1791 0002700 173.1418  48.1007  1.00271327 46002
EUTELSAT 7B             
1 39163U 13022A   25290.91294389  .00000040  00000+0  00000+0 0  9995
2 39163   0.0748  23.6125 0001858 284.2088  54.5062  1.00273282 45529
EXPRESS-AT1             
1 39612U 14010A   25290.82753125  .00000000  00000+0  00000+0 0  9996
2 39612   0.0219 212.8863 0000117  61.0668 106.5313  1.00271664 42384
EXPRESS-AT2             
1 39613U 14010B   25285.23079185 -.00000290  00000+0  00000+0 0  9995
2 39613   0.0174 228.3626 0000312 164.2420 211.3956  1.00268655 42017
EUTELSAT 3B             
1 39773U 14030A   25290.91216389  .00000012  00000+0  00000+0 0  9995
2 39773   0.0681 357.0528 0004486 204.0045 157.1003  1.00270627 41639
EUTELSAT 115 WEST B     
1 40425U 15010B   25290.96009079 -.00000033  00000+0  00000+0 0  9995
2 40425   0.0099  76.2105 0000249  25.3885 155.8711  1.00271231 38963
